NORAD_CAT_ID,OBJECT_NAME,OBJECT_TYPE,EPOCH,MEAN_MOTION,ECCENTRICITY,INCLINATION,RA_OF_ASC_NODE,ARG_OF_PERICENTER,MEAN_ANOMALY,BSTAR,MEAN_MOTION_DOT,MEAN_MOTION_DDOT,TLE_LINE0,TLE_LINE1,TLE_LINE2,SEMIMAJOR_AXIS,PERIOD,APOGEE,PERIGEE,DECAYED
52096.0,STARLINK-3717,PAYLOAD,2023-11-30 18:56:23,15.08846198,0.0001648,53.2141,204.6885,117.3156,242.8004,0.0015844,0.00025022,0.0,0 STARLINK-3717,1 52096U 22029J   23334.78915534  .00025022  00000-0  15844-2 0  9999,2 52096  53.2141 204.6885 0001648 117.3156 242.8004 15.08846198 95493,6917.861,95.437,540.867,538.586,0.0
52096.0,STARLINK-3717,PAYLOAD,2023-11-30 20:31:46,15.08845293,0.0001601,53.2142,204.391,119.9368,240.1784,0.0010286,0.00016122,0.0,0 STARLINK-3717,1 52096U 22029J   23334.85539412  .00016122  00000-0  10286-2 0  9990,2 52096  53.2142 204.3910 0001601 119.9368 240.1784 15.08845293 95505,6917.864,95.437,540.837,538.622,0.0
52096.0,STARLINK-3717,PAYLOAD,2023-12-01 18:47:09,15.08852004,0.000134,53.2161,200.2282,80.1829,279.9314,0.00066408,0.000103,0.0,0 STARLINK-3717,1 52096U 22029J   23335.78275441  .00010300  00000-0  66408-3 0  9992,2 52096  53.2161 200.2282 0001340  80.1829 279.9314 15.08852004 95646,6917.844,95.437,540.636,538.782,0.0
52096.0,STARLINK-3717,PAYLOAD,2023-12-01 21:57:55,15.08861478,0.0001407,53.2147,199.6349,81.4892,278.626,0.00081392,0.00012697,0.0,0 STARLINK-3717,1 52096U 22029J   23335.91523136  .00012697  00000-0  81392-3 0  9994,2 52096  53.2147 199.6349 0001407  81.4892 278.6260 15.08861478 95666,6917.815,95.436,540.653,538.706,0.0
52096.0,STARLINK-3717,PAYLOAD,2023-12-02 01:08:42,15.08867789,0.0001393,53.2151,199.0384,87.7663,272.3489,0.0010095,0.00015827,0.0,0 STARLINK-3717,1 52096U 22029J   23336.04770864  .00015827  00000-0  10095-2 0  9990,2 52096  53.2151 199.0384 0001393  87.7663 272.3489 15.08867789 95680,6917.795,95.436,540.624,538.697,0.0
52096.0,STARLINK-3717,PAYLOAD,2023-12-02 20:13:19,15.08851977,0.0001374,53.2152,195.4709,96.7946,263.3202,0.00014996,2.1e-05,0.0,0 STARLINK-3717,1 52096U 22029J   23336.84258570  .00002100  00000-0  14996-3 0  9998,2 52096  53.2152 195.4709 0001374  96.7946 263.3202 15.08851977 95804,6917.844,95.437,540.659,538.758,0.0
52096.0,STARLINK-3717,PAYLOAD,2023-12-02 21:48:42,15.08855278,0.0001356,53.2151,195.1737,97.346,262.7687,0.00024788,3.661e-05,0.0,0 STARLINK-3717,1 52096U 22029J   23336.90882446  .00003661  00000-0  24788-3 0  9993,2 52096  53.2151 195.1737 0001356  97.3460 262.7687 15.08855278 95818,6917.834,95.437,540.637,538.761,0.0
52096.0,STARLINK-3717,PAYLOAD,2023-12-03 13:42:34,15.08826273,0.0001405,53.2149,192.1996,108.8162,251.2983,0.00020483,2.972e-05,0.0,0 STARLINK-3717,1 52096U 22029J   23337.57123152  .00002972  00000-0  20483-3 0  9991,2 52096  53.2149 192.1996 0001405 108.8162 251.2983 15.08826273 95917,6917.922,95.438,540.759,538.815,0.0
52096.0,STARLINK-3717,PAYLOAD,2023-12-03 20:04:07,15.08817438,0.0001443,53.2148,191.0084,107.4363,252.6787,-0.00023764,-4.066e-05,0.0,0 STARLINK-3717,1 52096U 22029J   23337.83619795 -.00004066  00000-0 -23764-3 0  9996,2 52096  53.2148 191.0084 0001443 107.4363 252.6787 15.08817438 95956,6917.949,95.439,540.813,538.816,0.0
52096.0,STARLINK-3717,PAYLOAD,2023-12-04 00:50:17,15.0881511,0.0001373,53.2151,190.1172,94.2656,265.8493,-0.00033881,-5.672e-05,0.0,0 STARLINK-3717,1 52096U 22029J   23338.03492287 -.00005672  00000-0 -33881-3 0  9999,2 52096  53.2151 190.1172 0001373  94.2656 265.8493 15.08815110 95986,6917.956,95.439,540.771,538.872,0.0
52096.0,STARLINK-3717,PAYLOAD,2023-12-05 22:56:29,15.08838105,0.0001305,53.2146,181.495,94.4154,265.6987,0.00034198,5.159e-05,0.0,0 STARLINK-3717,1 52096U 22029J   23339.95589579  .00005159  00000-0  34198-3 0  9992,2 52096  53.2146 181.4950 0001305  94.4154 265.6987 15.08838105 96275,6917.886,95.438,540.654,538.848,0.0
52096.0,STARLINK-3717,PAYLOAD,2023-12-06 13:14:57,15.08849201,0.0001277,53.2147,178.818,98.4772,261.6365,0.00032418,4.876e-05,0.0,0 STARLINK-3717,1 52096U 22029J   23340.55204886  .00004876  00000-0  32418-3 0  9993,2 52096  53.2147 178.8180 0001277  98.4772 261.6365 15.08849201 96364,6917.852,95.437,540.601,538.834,0.0
52096.0,STARLINK-3717,PAYLOAD,2023-12-06 18:01:06,15.08857112,0.0001351,53.2147,177.9263,95.1446,264.9701,0.00022428,3.285e-05,0.0,0 STARLINK-3717,1 52096U 22029J   23340.75076647  .00003285  00000-0  22428-3 0  9990,2 52096  53.2147 177.9263 0001351  95.1446 264.9701 15.08857112 96394,6917.828,95.436,540.628,538.758,0.0
52096.0,STARLINK-3717,PAYLOAD,2023-12-06 21:11:52,15.08858199,0.0001337,53.2145,177.3316,94.3545,265.76,0.00025524,3.779e-05,0.0,0 STARLINK-3717,1 52096U 22029J   23340.88324514  .00003779  00000-0  25524-3 0  9991,2 52096  53.2145 177.3316 0001337  94.3545 265.7600 15.08858199 96416,6917.825,95.436,540.615,538.765,0.0
52096.0,STARLINK-3717,PAYLOAD,2023-12-07 11:30:20,15.08846515,0.0001347,53.2146,174.6552,90.347,269.7676,-2.2383e-06,-3.24e-06,0.0,0 STARLINK-3717,1 52096U 22029J   23341.47940579 -.00000324  00000-0 -22383-5 0  9999,2 52096  53.2146 174.6552 0001347  90.3470 269.7676 15.08846515 96509,6917.86,95.437,540.657,538.794,0.0
52096.0,STARLINK-3717,PAYLOAD,2023-12-07 13:05:43,15.08848164,0.0001351,53.2146,174.3578,90.7754,269.3393,1.365e-05,-7.1e-07,0.0,0 STARLINK-3717,1 52096U 22029J   23341.54564446 -.00000071  00000-0  13650-4 0  9996,2 52096  53.2146 174.3578 0001351  90.7754 269.3393 15.08848164 96513,6917.855,95.437,540.655,538.786,0.0
52096.0,STARLINK-3717,PAYLOAD,2023-12-08 12:56:30,15.08847445,0.000133,53.2154,169.8968,89.7201,270.3944,-3.4711e-05,-8.4e-06,0.0,0 STARLINK-3717,1 52096U 22029J   23342.53924034 -.00000840  00000-0 -34711-4 0  9995,2 52096  53.2154 169.8968 0001330  89.7201 270.3944 15.08847445 96667,6917.858,95.437,540.643,538.803,0.0
52096.0,STARLINK-3717,PAYLOAD,2023-12-08 17:42:39,15.08849071,0.0001332,53.2154,169.0048,89.448,270.6665,-2.5295e-05,-6.91e-06,0.0,0 STARLINK-3717,1 52096U 22029J   23342.73795739 -.00000691  00000-0 -25295-4 0  9996,2 52096  53.2154 169.0048 0001332  89.4480 270.6665 15.08849071 96699,6917.853,95.437,540.639,538.796,0.0
52096.0,STARLINK-3717,PAYLOAD,2023-12-08 20:53:25,15.08849092,0.0001334,53.2154,168.41,89.4485,270.666,-2.5115e-05,-6.88e-06,0.0,0 STARLINK-3717,1 52096U 22029J   23342.87043639 -.00000688  00000-0 -25115-4 0  9993,2 52096  53.2154 168.4100 0001334  89.4485 270.6660 15.08849092 96719,6917.853,95.437,540.64,538.795,0.0
52096.0,STARLINK-3717,PAYLOAD,2023-12-09 12:47:17,15.08838101,0.0001342,53.2154,165.4363,87.7589,272.3557,-2.6158e-07,-2.92e-06,0.0,0 STARLINK-3717,1 52096U 22029J   23343.53283990 -.00000292  00000-0 -26158-6 0  9994,2 52096  53.2154 165.4363 0001342  87.7589 272.3557 15.08838101 96816,6917.886,95.438,540.68,538.823,0.0
52096.0,STARLINK-3717,PAYLOAD,2023-12-09 15:58:03,15.08839194,0.0001343,53.2154,164.8417,87.5496,272.5649,-1.0794e-06,-3.05e-06,0.0,0 STARLINK-3717,1 52096U 22029J   23343.66531917 -.00000305  00000-0 -10794-5 0  9996,2 52096  53.2154 164.8417 0001343  87.5496 272.5649 15.08839194 96834,6917.883,95.438,540.677,538.819,0.0
52096.0,STARLINK-3717,PAYLOAD,2023-12-09 22:19:35,15.08840636,0.0001349,53.2154,163.6522,87.0266,273.0881,3.8856e-06,-2.26e-06,0.0,0 STARLINK-3717,1 52096U 22029J   23343.93027769 -.00000226  00000-0  38856-5 0  9991,2 52096  53.2154 163.6522 0001349  87.0266 273.0881 15.08840636 96875,6917.878,95.438,540.677,538.81,0.0
52096.0,STARLINK-3717,PAYLOAD,2023-12-10 12:38:04,15.08837467,0.0001371,53.2155,160.9757,88.6277,271.4872,1.5018e-05,-4.9e-07,0.0,0 STARLINK-3717,1 52096U 22029J   23344.52643946 -.00000049  00000-0  15018-4 0  9995,2 52096  53.2155 160.9757 0001371  88.6277 271.4872 15.08837467 96960,6917.888,95.438,540.702,538.805,0.0
52096.0,STARLINK-3717,PAYLOAD,2023-12-10 17:24:13,15.08838317,0.0001317,53.2157,160.0835,90.2104,269.9039,-4.7944e-06,-3.64e-06,0.0,0 STARLINK-3717,1 52096U 22029J   23344.72515955 -.00000364  00000-0 -47944-5 0  9990,2 52096  53.2157 160.0835 0001317  90.2104 269.9039 15.08838317 96993,6917.886,95.438,540.662,538.839,0.0
52096.0,STARLINK-3717,PAYLOAD,2023-12-11 18:50:25,15.08825476,0.0001323,53.2156,155.3244,88.117,271.9974,-4.2642e-05,-9.66e-06,0.0,0 STARLINK-3717,1 52096U 22029J   23345.78501589 -.00000966  00000-0 -42642-4 0  9992,2 52096  53.2156 155.3244 0001323  88.1170 271.9974 15.08825476 97151,6917.925,95.438,540.705,538.875,0.0
52096.0,STARLINK-3717,PAYLOAD,2023-12-12 18:41:12,15.08828076,0.0001321,53.2161,150.8667,77.5577,282.5563,1.8612e-05,8e-08,0.0,0 STARLINK-3717,1 52096U 22029J   23346.77862074  .00000008  00000-0  18612-4 0  9996,2 52096  53.2161 150.8667 0001321  77.5577 282.5563 15.08828076 97305,6917.917,95.438,540.696,538.868,0.0
52096.0,STARLINK-3717,PAYLOAD,2023-12-13 18:31:59,15.08836673,0.0001183,53.2159,146.406,89.9221,270.1907,0.00013487,1.859e-05,0.0,0 STARLINK-3717,1 52096U 22029J   23347.77221688  .00001859  00000-0  13487-3 0  9996,2 52096  53.2159 146.4060 0001183  89.9221 270.1907 15.08836673 97452,6917.891,95.438,540.574,538.937,0.0
52096.0,STARLINK-3717,PAYLOAD,2023-12-14 16:47:22,15.0885177,0.0001133,53.2155,142.2444,93.0793,267.0329,0.00016571,2.351e-05,0.0,0 STARLINK-3717,1 52096U 22029J   23348.69956503  .00002351  00000-0  16571-3 0  9994,2 52096  53.2155 142.2444 0001133  93.0793 267.0329 15.08851770 97596,6917.844,95.437,540.493,538.926,0.0
52096.0,STARLINK-3717,PAYLOAD,2023-12-15 13:27:23,15.08842335,0.0001409,53.2162,138.3792,70.0161,290.0983,0.00012639,1.724e-05,0.0,0 STARLINK-3717,1 52096U 22029J   23349.56068785  .00001724  00000-0  12639-3 0  9991,2 52096  53.2162 138.3792 0001409  70.0161 290.0983 15.08842335 97720,6917.873,95.437,540.713,538.764,0.0
52096.0,STARLINK-3717,PAYLOAD,2023-12-15 16:38:09,15.0884719,0.0001302,53.2162,137.7797,76.1983,283.9154,2.6346e-05,1.31e-06,0.0,0 STARLINK-3717,1 52096U 22029J   23349.69316705  .00000131  00000-0  26346-4 0  9995,2 52096  53.2162 137.7797 0001302  76.1983 283.9154 15.08847190 97746,6917.858,95.437,540.624,538.823,0.0
